{
  "type": "FeatureCollection",
  "features": [
    {
      "type": "Feature",
      "properties": {
        "norad_id": 66947,
        "name": "STARLINK-36089",
        "group": "last-30-days",
        "lat": 45.70964806943849,
        "lon": 45.72994614656412,
        "alt_km": 358.8107311865524,
        "timestamp": "2025-12-23T16:57:11.063389+00:00",
        "meta_object_name": "STARLINK-36089",
        "meta_object_id": "2025-286Y",
        "meta_epoch": "2025-12-23T06:00:00.999648",
        "meta_mean_motion": 15.69589731,
        "meta_eccentricity": 0.00010191,
        "meta_inclination": 53.1592,
        "meta_ra_of_asc_node": 357.752,
        "meta_arg_of_pericenter": 81.6178,
        "meta_mean_anomaly": 283.3364,
        "meta_ephemeris_type": 0,
        "meta_classification_type": "U",
        "meta_norad_cat_id": 66947,
        "meta_element_set_no": 999,
        "meta_rev_at_epoch": 368,
        "meta_bstar": -0.018685058,
        "meta_mean_motion_dot": -0.01987819,
        "meta_mean_motion_ddot": 0,
        "tle_line1": "1 66947U 25286Y   25357.25001157 -.01987819  00000+0 -18685-1 0  9991",
        "tle_line2": "2 66947  53.1592 357.7520 0001019  81.6178 283.3364 15.69589731  3680"
      },
      "geometry": {
        "type": "Point",
        "coordinates": [
          45.72994614656412,
          45.70964806943849
        ]
      }
    },
    {
      "type": "Feature",
      "properties": {
        "norad_id": 66948,
        "name": "STARLINK-36116",
        "group": "last-30-days",
        "lat": 44.70423797093475,
        "lon": 43.41552220292595,
        "alt_km": 358.9593911927195,
        "timestamp": "2025-12-23T16:57:11.063400+00:00",
        "meta_object_name": "STARLINK-36116",
        "meta_object_id": "2025-286Z",
        "meta_epoch": "2025-12-23T06:00:00.999648",
        "meta_mean_motion": 15.69580866,
        "meta_eccentricity": 9.861e-05,
        "meta_inclination": 53.1595,
        "meta_ra_of_asc_node": 357.7564,
        "meta_arg_of_pericenter": 72.6521,
        "meta_mean_anomaly": 290.3887,
        "meta_ephemeris_type": 0,
        "meta_classification_type": "U",
        "meta_norad_cat_id": 66948,
        "meta_element_set_no": 999,
        "meta_rev_at_epoch": 368,
        "meta_bstar": -0.018552256,
        "meta_mean_motion_dot": -0.01974686,
        "meta_mean_motion_ddot": 0,
        "tle_line1": "1 66948U 25286Z   25357.25001157 -.01974686  00000+0 -18552-1 0  9993",
        "tle_line2": "2 66948  53.1595 357.7564 0000986  72.6521 290.3887 15.69580866  3684"
      },
      "geometry": {
        "type": "Point",
        "coordinates": [
          43.41552220292595,
          44.70423797093475
        ]
      }
    },
    {
      "type": "Feature",
      "properties": {
        "norad_id": 66949,
        "name": "STARLINK-36096",
        "group": "last-30-days",
        "lat": 46.66927599591437,
        "lon": 48.135148890020545,
        "alt_km": 358.80004735927196,
        "timestamp": "2025-12-23T16:57:11.063414+00:00",
        "meta_object_name": "STARLINK-36096",
        "meta_object_id": "2025-286AA",
        "meta_epoch": "2025-12-23T06:00:00.999648",
        "meta_mean_motion": 15.69564369,
        "meta_eccentricity": 8.976e-05,
        "meta_inclination": 53.159,
        "meta_ra_of_asc_node": 357.7483,
        "meta_arg_of_pericenter": 73.3694,
        "meta_mean_anomaly": 293.5446,
        "meta_ephemeris_type": 0,
        "meta_classification_type": "U",
        "meta_norad_cat_id": 66949,
        "meta_element_set_no": 999,
        "meta_rev_at_epoch": 368,
        "meta_bstar": -0.018689666,
        "meta_mean_motion_dot": -0.01986298,
        "meta_mean_motion_ddot": 0,
        "tle_line1": "1 66949U 25286AA  25357.25001157 -.01986298  00000+0 -18690-1 0  9999",
        "tle_line2": "2 66949  53.1590 357.7483 0000897  73.3694 293.5446 15.69564369  3686"
      },
      "geometry": {
        "type": "Point",
        "coordinates": [
          48.135148890020545,
          46.66927599591437
        ]
      }
    },
    {
      "type": "Feature",
      "properties": {
        "norad_id": 66950,
        "name": "STARLINK-36111",
        "group": "last-30-days",
        "lat": 48.42394414157203,
        "lon": 53.183790583150504,
        "alt_km": 358.3637088699297,
        "timestamp": "2025-12-23T16:57:11.063426+00:00",
        "meta_object_name": "STARLINK-36111",
        "meta_object_id": "2025-286AB",
        "meta_epoch": "2025-12-23T06:00:00.999648",
        "meta_mean_motion": 15.69588366,
        "meta_eccentricity": 0.00010523,
        "meta_inclination": 53.1594,
        "meta_ra_of_asc_node": 357.7402,
        "meta_arg_of_pericenter": 79.1075,
        "meta_mean_anomaly": 291.5978,
        "meta_ephemeris_type": 0,
        "meta_classification_type": "U",
        "meta_norad_cat_id": 66950,
        "meta_element_set_no": 999,
        "meta_rev_at_epoch": 368,
        "meta_bstar": -0.018666674,
        "meta_mean_motion_dot": -0.0198602,
        "meta_mean_motion_ddot": 0,
        "tle_line1": "1 66950U 25286AB  25357.25001157 -.01986020  00000+0 -18667-1 0  9998",
        "tle_line2": "2 66950  53.1594 357.7402 0001052  79.1075 291.5978 15.69588366  3685"
      },
      "geometry": {
        "type": "Point",
        "coordinates": [
          53.183790583150504,
          48.42394414157203
        ]
      }
    },
    {
      "type": "Feature",
      "properties": {
        "norad_id": 66951,
        "name": "STARLINK-35999",
        "group": "last-30-days",
        "lat": 49.21467251996735,
        "lon": 55.838078115659634,
        "alt_km": 358.248186749096,
        "timestamp": "2025-12-23T16:57:11.063436+00:00",
        "meta_object_name": "STARLINK-35999",
        "meta_object_id": "2025-286AC",
        "meta_epoch": "2025-12-23T06:00:00.999648",
        "meta_mean_motion": 15.69590417,
        "meta_eccentricity": 0.00010499,
        "meta_inclination": 53.159,
        "meta_ra_of_asc_node": 357.7361,
        "meta_arg_of_pericenter": 77.8454,
        "meta_mean_anomaly": 294.7759,
        "meta_ephemeris_type": 0,
        "meta_classification_type": "U",
        "meta_norad_cat_id": 66951,
        "meta_element_set_no": 999,
        "meta_rev_at_epoch": 368,
        "meta_bstar": -0.018693858,
        "meta_mean_motion_dot": -0.01988718,
        "meta_mean_motion_ddot": 0,
        "tle_line1": "1 66951U 25286AC  25357.25001157 -.01988718  00000+0 -18694-1 0  9995",
        "tle_line2": "2 66951  53.1590 357.7361 0001049  77.8454 294.7759 15.69590417  3680"
      },
      "geometry": {
        "type": "Point",
        "coordinates": [
          55.838078115659634,
          49.21467251996735
        ]
      }
    },
    {
      "type": "Feature",
      "properties": {
        "norad_id": 66952,
        "name": "STARLINK-36122",
        "group": "last-30-days",
        "lat": 47.57518377537761,
        "lon": 50.619882928053116,
        "alt_km": 358.68045973242533,
        "timestamp": "2025-12-23T16:57:11.063446+00:00",
        "meta_object_name": "STARLINK-36122",
        "meta_object_id": "2025-286AD",
        "meta_epoch": "2025-12-23T06:00:00.999648",
        "meta_mean_motion": 15.69530912,
        "meta_eccentricity": 7.608e-05,
        "meta_inclination": 53.159,
        "meta_ra_of_asc_node": 357.7441,
        "meta_arg_of_pericenter": 72.2225,
        "meta_mean_anomaly": 296.6118,
        "meta_ephemeris_type": 0,
        "meta_classification_type": "U",
        "meta_norad_cat_id": 66952,
        "meta_element_set_no": 999,
        "meta_rev_at_epoch": 368,
        "meta_bstar": -0.018115445,
        "meta_mean_motion_dot": -0.0192982,
        "meta_mean_motion_ddot": 0,
        "tle_line1": "1 66952U 25286AD  25357.25001157 -.01929820  00000+0 -18115-1 0  9993",
        "tle_line2": "2 66952  53.1590 357.7441 0000760  72.2225 296.6118 15.69530912  3688"
      },
      "geometry": {
        "type": "Point",
        "coordinates": [
          50.619882928053116,
          47.57518377537761
        ]
      }
    },
    {
      "type": "Feature",
      "properties": {
        "norad_id": 66953,
        "name": "HULIANWANG DIGUI-114",
        "group": "last-30-days",
        "lat": 36.72966690292498,
        "lon": 159.54764693041722,
        "alt_km": 1004.7492380524754,
        "timestamp": "2025-12-23T16:57:11.063456+00:00",
        "meta_object_name": "HULIANWANG DIGUI-114",
        "meta_object_id": "2025-287A",
        "meta_epoch": "2025-12-20T09:09:14.655168",
        "meta_mean_motion": 13.66161866,
        "meta_eccentricity": 0.00096738,
        "meta_inclination": 86.496,
        "meta_ra_of_asc_node": 343.3747,
        "meta_arg_of_pericenter": 185.0352,
        "meta_mean_anomaly": 175.071,
        "meta_ephemeris_type": 0,
        "meta_classification_type": "U",
        "meta_norad_cat_id": 66953,
        "meta_element_set_no": 999,
        "meta_rev_at_epoch": 157,
        "meta_bstar": 3.033618e-06,
        "meta_mean_motion_dot": 1.9e-07,
        "meta_mean_motion_ddot": 0,
        "tle_line1": "1 66953U 25287A   25354.38141962  .00000019  00000+0  30336-5 0  9995",
        "tle_line2": "2 66953  86.4960 343.3747 0009673 185.0352 175.0710 13.66161866  1572"
      },
      "geometry": {
        "type": "Point",
        "coordinates": [
          159.54764693041722,
          36.72966690292498
        ]
      }
    }
  ]
}